*******************************************************************************
Ephemeris / WWW_USER Mon Mar 24 07:56:41 2025 Pasadena, USA      / Horizons    
*******************************************************************************
Target body name: (2018 TZ5)                      {source: JPL#13}
Center body name: Earth (399)                     {source: DE441}
Center-site name: Mauna Kea
*******************************************************************************
Start time      : A.D. 2019-Jan-19 04:15:00.0000 UT      
Stop  time      : A.D. 2019-Jan-19 16:49:00.0000 UT      
Step-size       : 1 minutes
*******************************************************************************
Target pole/equ : undefined
Target radii    : undefined                                                    
Center geodetic : 204.5278, 19.8260847, 4.21024   {E-lon(deg),Lat(deg),Alt(km)}
Center cylindric: 204.5278, 6006.35451, 2151.0229 {E-lon(deg),Dxy(km),Dz(km)}
Center pole/equ : ITRF93                          {East-longitude positive}
Center radii    : 6378.137, 6378.137, 6356.752 km {Equator_a, b, pole_c}       
Target primary  : Sun
Vis. interferer : MOON (R_eq= 1737.400) km        {source: DE441}
Rel. light bend : Sun                             {source: DE441}
Rel. lght bnd GM: 1.3271E+11 km^3/s^2                                          
Small-body perts: Yes                             {source: SB441-N16}
Atmos refraction: NO (AIRLESS)
RA format       : HMS
Time format     : CAL 
Calendar mode   : Mixed Julian/Gregorian
RTS-only print  : NO       
EOP file        : eop.250321.p250617                                           
EOP coverage    : DATA-BASED 1962-JAN-20 TO 2025-MAR-21. PREDICTS-> 2025-JUN-16
Units conversion: 1 au= 149597870.700 km, c= 299792.458 km/s, 1 day= 86400.0 s 
Table cut-offs 1: Elevation (-90.0deg=NO ),Airmass (>38.000=NO), Daylight (YES)
Table cut-offs 2: Solar elongation (  0.0,180.0=NO ),Local Hour Angle( 0.0=NO )
Table cut-offs 3: RA/DEC angular rate (     0.0=NO )                           
*******************************************************************************
Initial IAU76/J2000 heliocentric ecliptic osculating elements (au, days, deg.):
  EPOCH=  2458421.5 ! 2018-Oct-30.00 (TDB)         Residual RMS= .3052         
   EC= .5505022016549632   QR= .8932716909804733   TP= 2458367.6074299323      
   OM= 132.9772150011661   W=  197.0626448515302   IN= 1.165364587967566       
  Equivalent ICRF heliocentric cartesian coordinates (au, au/d):
   X= 9.139681807821705E-01  Y= 6.232256283970929E-01  Z= 2.452583568287751E-01
  VX=-4.619682259947144E-03 VY= 1.729028462648113E-02 VZ= 7.287606215643615E-03
Asteroid physical parameters (km, seconds, rotational period in hours):        
   GM= n.a.                RAD= n.a.               ROTPER= n.a.                
   H= 24.4                 G= .150                 B-V= n.a.                   
                           ALBEDO= n.a.            STYP= n.a.                  
*******************************************************************************
 Date__(UT)__HR:MN     R.A._________(ICRF)_________DEC
******************************************************
$$SOE
 2019-Jan-19 08:21  m  03 22 46.618881 +17 06 01.51114
 2019-Jan-19 08:22  m  03 22 46.671466 +17 06 01.76612
 2019-Jan-19 08:23  m  03 22 46.724058 +17 06 02.02106
 2019-Jan-19 08:24  m  03 22 46.776656 +17 06 02.27598
 2019-Jan-19 08:25  m  03 22 46.829260 +17 06 02.53086
 2019-Jan-19 08:26  m  03 22 46.881871 +17 06 02.78571
 2019-Jan-19 08:27  m  03 22 46.934488 +17 06 03.04052
 2019-Jan-19 08:28  m  03 22 46.987112 +17 06 03.29530
 2019-Jan-19 08:29  m  03 22 47.039742 +17 06 03.55005
 2019-Jan-19 08:30  m  03 22 47.092379 +17 06 03.80476
 2019-Jan-19 08:31  m  03 22 47.145023 +17 06 04.05945
 2019-Jan-19 08:32  m  03 22 47.197673 +17 06 04.31410
 2019-Jan-19 08:33  m  03 22 47.250329 +17 06 04.56871
 2019-Jan-19 08:34  m  03 22 47.302993 +17 06 04.82330
 2019-Jan-19 08:35  m  03 22 47.355663 +17 06 05.07785
 2019-Jan-19 08:36  m  03 22 47.408340 +17 06 05.33237
 2019-Jan-19 08:37  m  03 22 47.461024 +17 06 05.58686
 2019-Jan-19 08:38  m  03 22 47.513714 +17 06 05.84131
 2019-Jan-19 08:39  m  03 22 47.566412 +17 06 06.09574
 2019-Jan-19 08:40  m  03 22 47.619116 +17 06 06.35013
 2019-Jan-19 08:41  m  03 22 47.671827 +17 06 06.60449
 2019-Jan-19 08:42  m  03 22 47.724545 +17 06 06.85882
 2019-Jan-19 08:43  m  03 22 47.777271 +17 06 07.11312
 2019-Jan-19 08:44  m  03 22 47.830003 +17 06 07.36739
 2019-Jan-19 08:45  m  03 22 47.882742 +17 06 07.62163
 2019-Jan-19 08:46  m  03 22 47.935488 +17 06 07.87583
 2019-Jan-19 08:47  m  03 22 47.988242 +17 06 08.13001
 2019-Jan-19 08:48  m  03 22 48.041002 +17 06 08.38415
 2019-Jan-19 08:49  m  03 22 48.093770 +17 06 08.63826
 2019-Jan-19 08:50  m  03 22 48.146545 +17 06 08.89235
 2019-Jan-19 08:51  m  03 22 48.199327 +17 06 09.14640
 2019-Jan-19 08:52  m  03 22 48.252116 +17 06 09.40042
 2019-Jan-19 08:53  m  03 22 48.304913 +17 06 09.65441
 2019-Jan-19 08:54  m  03 22 48.357717 +17 06 09.90838
 2019-Jan-19 08:55  m  03 22 48.410528 +17 06 10.16231
 2019-Jan-19 08:56  m  03 22 48.463347 +17 06 10.41621
 2019-Jan-19 08:57  m  03 22 48.516173 +17 06 10.67009
 2019-Jan-19 08:58  m  03 22 48.569007 +17 06 10.92393
 2019-Jan-19 08:59  m  03 22 48.621848 +17 06 11.17775
 2019-Jan-19 09:00  m  03 22 48.674696 +17 06 11.43153
 2019-Jan-19 09:01  m  03 22 48.727552 +17 06 11.68529
 2019-Jan-19 09:02  m  03 22 48.780416 +17 06 11.93902
 2019-Jan-19 09:03  m  03 22 48.833287 +17 06 12.19272
 2019-Jan-19 09:04  m  03 22 48.886166 +17 06 12.44639
 2019-Jan-19 09:05  m  03 22 48.939052 +17 06 12.70003
 2019-Jan-19 09:06  m  03 22 48.991947 +17 06 12.95365
 2019-Jan-19 09:07  m  03 22 49.044848 +17 06 13.20723
 2019-Jan-19 09:08  m  03 22 49.097758 +17 06 13.46079
 2019-Jan-19 09:09  m  03 22 49.150675 +17 06 13.71432
 2019-Jan-19 09:10  m  03 22 49.203600 +17 06 13.96782
 2019-Jan-19 09:11  m  03 22 49.256533 +17 06 14.22130
 2019-Jan-19 09:12  m  03 22 49.309474 +17 06 14.47474
 2019-Jan-19 09:13  m  03 22 49.362423 +17 06 14.72816
 2019-Jan-19 09:14  m  03 22 49.415379 +17 06 14.98156
 2019-Jan-19 09:15  m  03 22 49.468344 +17 06 15.23492
 2019-Jan-19 09:16  m  03 22 49.521316 +17 06 15.48826
 2019-Jan-19 09:17  m  03 22 49.574296 +17 06 15.74157
 2019-Jan-19 09:18  m  03 22 49.627285 +17 06 15.99486
 2019-Jan-19 09:19  m  03 22 49.680281 +17 06 16.24812
 2019-Jan-19 09:20  m  03 22 49.733285 +17 06 16.50135
 2019-Jan-19 09:21  m  03 22 49.786298 +17 06 16.75456
 2019-Jan-19 09:22  m  03 22 49.839318 +17 06 17.00774
 2019-Jan-19 09:23  m  03 22 49.892347 +17 06 17.26089
 2019-Jan-19 09:24  m  03 22 49.945384 +17 06 17.51402
 2019-Jan-19 09:25  m  03 22 49.998429 +17 06 17.76713
 2019-Jan-19 09:26  m  03 22 50.051482 +17 06 18.02020
 2019-Jan-19 09:27  m  03 22 50.104544 +17 06 18.27326
 2019-Jan-19 09:28  m  03 22 50.157614 +17 06 18.52628
 2019-Jan-19 09:29  m  03 22 50.210692 +17 06 18.77929
 2019-Jan-19 09:30  m  03 22 50.263778 +17 06 19.03226
 2019-Jan-19 09:31  m  03 22 50.316873 +17 06 19.28522
 2019-Jan-19 09:32  m  03 22 50.369976 +17 06 19.53814
 2019-Jan-19 09:33  m  03 22 50.423087 +17 06 19.79105
 2019-Jan-19 09:34  m  03 22 50.476207 +17 06 20.04393
 2019-Jan-19 09:35  m  03 22 50.529335 +17 06 20.29678
 2019-Jan-19 09:36  m  03 22 50.582472 +17 06 20.54961
 2019-Jan-19 09:37  m  03 22 50.635617 +17 06 20.80242
 2019-Jan-19 09:38  m  03 22 50.688771 +17 06 21.05520
 2019-Jan-19 09:39  m  03 22 50.741933 +17 06 21.30797
 2019-Jan-19 09:40  m  03 22 50.795104 +17 06 21.56070
 2019-Jan-19 09:41  m  03 22 50.848283 +17 06 21.81342
 2019-Jan-19 09:42  m  03 22 50.901471 +17 06 22.06611
 2019-Jan-19 09:43  m  03 22 50.954668 +17 06 22.31877
 2019-Jan-19 09:44  m  03 22 51.007873 +17 06 22.57142
 2019-Jan-19 09:45  m  03 22 51.061087 +17 06 22.82404
 2019-Jan-19 09:46  m  03 22 51.114309 +17 06 23.07664
 2019-Jan-19 09:47  m  03 22 51.167540 +17 06 23.32922
 2019-Jan-19 09:48  m  03 22 51.220780 +17 06 23.58178
 2019-Jan-19 09:49  m  03 22 51.274029 +17 06 23.83431
 2019-Jan-19 09:50  m  03 22 51.327287 +17 06 24.08682
 2019-Jan-19 09:51  m  03 22 51.380553 +17 06 24.33931
 2019-Jan-19 09:52  m  03 22 51.433828 +17 06 24.59178
 2019-Jan-19 09:53  m  03 22 51.487112 +17 06 24.84423
 2019-Jan-19 09:54  m  03 22 51.540405 +17 06 25.09665
 2019-Jan-19 09:55  m  03 22 51.593706 +17 06 25.34906
 2019-Jan-19 09:56  m  03 22 51.647017 +17 06 25.60144
 2019-Jan-19 09:57  m  03 22 51.700337 +17 06 25.85381
 2019-Jan-19 09:58  m  03 22 51.753665 +17 06 26.10615
 2019-Jan-19 09:59  m  03 22 51.807002 +17 06 26.35847
 2019-Jan-19 10:00  m  03 22 51.860349 +17 06 26.61078
 2019-Jan-19 10:01  m  03 22 51.913704 +17 06 26.86306
 2019-Jan-19 10:02  m  03 22 51.967069 +17 06 27.11532
 2019-Jan-19 10:03  m  03 22 52.020442 +17 06 27.36756
 2019-Jan-19 10:04  m  03 22 52.073825 +17 06 27.61979
 2019-Jan-19 10:05  m  03 22 52.127216 +17 06 27.87199
 2019-Jan-19 10:06  m  03 22 52.180617 +17 06 28.12418
 2019-Jan-19 10:07  m  03 22 52.234027 +17 06 28.37634
 2019-Jan-19 10:08  m  03 22 52.287446 +17 06 28.62849
 2019-Jan-19 10:09  m  03 22 52.340874 +17 06 28.88062
 2019-Jan-19 10:10  m  03 22 52.394311 +17 06 29.13272
 2019-Jan-19 10:11  m  03 22 52.447757 +17 06 29.38482
 2019-Jan-19 10:12  m  03 22 52.501213 +17 06 29.63689
 2019-Jan-19 10:13  m  03 22 52.554678 +17 06 29.88894
 2019-Jan-19 10:14  m  03 22 52.608152 +17 06 30.14098
 2019-Jan-19 10:15  m  03 22 52.661636 +17 06 30.39300
 2019-Jan-19 10:16  m  03 22 52.715128 +17 06 30.64500
 2019-Jan-19 10:17  m  03 22 52.768630 +17 06 30.89698
 2019-Jan-19 10:18  m  03 22 52.822142 +17 06 31.14895
 2019-Jan-19 10:19  m  03 22 52.875662 +17 06 31.40090
 2019-Jan-19 10:20  m  03 22 52.929192 +17 06 31.65283
 2019-Jan-19 10:21  m  03 22 52.982731 +17 06 31.90475
 2019-Jan-19 10:22  m  03 22 53.036280 +17 06 32.15665
 2019-Jan-19 10:23  m  03 22 53.089838 +17 06 32.40853
